{"type":"FeatureCollection","name":"WAP+Southeast Pacific microphytoplankton stations 2023-2024","license_and_provenance":"source article DOI + user provided spreadsheet; derived coordinate-linked station table; see provenance metadata","features":[{"type":"Feature","geometry":{"type":"Point","coordinates":[-84.564473,-1.323919]},"properties":{"station_id":"P2P","region":"SE_PACIFIC","sampling_period":"2023-12-17/2023-12-23","max_chlorophyll_depth_m":25,"temperature_c":22.81,"dissolved_nitrogen_mg_l":null,"salinity_psu":null,"dissolved_oxygen_ml_l":null,"total_microphytoplankton_density_cells_l":60,"morphospecies_n":3,"dominant_taxon":"Oxytoxum spp.","source_article_doi":"10.25268/bimc.invemar.2026.55.2.1419","science_role":"PILOT_A_GROUND_TRUTH_CANDIDATE","notes":"physicochemical values verified from PDF Table 2; coordinates and density from provided spreadsheet, density consistent with PDF Table 3; sampling day unavailable"}},{"type":"Feature","geometry":{"type":"Point","coordinates":[-84.907532,-4.735437]},"properties":{"station_id":"P3P","region":"SE_PACIFIC","sampling_period":"2023-12-17/2023-12-23","max_chlorophyll_depth_m":25,"temperature_c":24.48,"dissolved_nitrogen_mg_l":null,"salinity_psu":null,"dissolved_oxygen_ml_l":null,"total_microphytoplankton_density_cells_l":190,"morphospecies_n":8,"dominant_taxon":"Thalassiosira spp.","source_article_doi":"10.25268/bimc.invemar.2026.55.2.1419","science_role":"PILOT_A_GROUND_TRUTH_CANDIDATE","notes":"physicochemical values verified from PDF Table 2; coordinates and density from provided spreadsheet, density consistent with PDF Table 3; sampling day unavailable"}},{"type":"Feature","geometry":{"type":"Point","coordinates":[-82.564391,-9.185681]},"properties":{"station_id":"P4P","region":"SE_PACIFIC","sampling_period":"2023-12-17/2023-12-23","max_chlorophyll_depth_m":25,"temperature_c":23.32,"dissolved_nitrogen_mg_l":11.24,"salinity_psu":35.37,"dissolved_oxygen_ml_l":3.99,"total_microphytoplankton_density_cells_l":70,"morphospecies_n":4,"dominant_taxon":"Dinoflagellata","source_article_doi":"10.25268/bimc.invemar.2026.55.2.1419","science_role":"PILOT_A_GROUND_TRUTH_CANDIDATE","notes":"physicochemical values verified from PDF Table 2; coordinates and density from provided spreadsheet, density consistent with PDF Table 3; sampling day unavailable"}},{"type":"Feature","geometry":{"type":"Point","coordinates":[-80.819859,-13.421159]},"properties":{"station_id":"P5P","region":"SE_PACIFIC","sampling_period":"2023-12-17/2023-12-23","max_chlorophyll_depth_m":20,"temperature_c":22.26,"dissolved_nitrogen_mg_l":11.42,"salinity_psu":35.49,"dissolved_oxygen_ml_l":4.27,"total_microphytoplankton_density_cells_l":620,"morphospecies_n":10,"dominant_taxon":"Prorocentrum spp.","source_article_doi":"10.25268/bimc.invemar.2026.55.2.1419","science_role":"PILOT_A_GROUND_TRUTH_CANDIDATE","notes":"physicochemical values verified from PDF Table 2; coordinates and density from provided spreadsheet, density consistent with PDF Table 3; sampling day unavailable"}},{"type":"Feature","geometry":{"type":"Point","coordinates":[-78.392261,-17.575812]},"properties":{"station_id":"P6P","region":"SE_PACIFIC","sampling_period":"2023-12-17/2023-12-23","max_chlorophyll_depth_m":25,"temperature_c":20.53,"dissolved_nitrogen_mg_l":11.76,"salinity_psu":35.31,"dissolved_oxygen_ml_l":4.13,"total_microphytoplankton_density_cells_l":330,"morphospecies_n":4,"dominant_taxon":"Planktoniella sp.","source_article_doi":"10.25268/bimc.invemar.2026.55.2.1419","science_role":"PILOT_A_GROUND_TRUTH_CANDIDATE","notes":"physicochemical values verified from PDF Table 2; coordinates and density from provided spreadsheet, density consistent with PDF Table 3; sampling day unavailable"}},{"type":"Feature","geometry":{"type":"Point","coordinates":[-75.622,-21.314]},"properties":{"station_id":"P7P","region":"SE_PACIFIC","sampling_period":"2023-12-17/2023-12-23","max_chlorophyll_depth_m":50,"temperature_c":18.91,"dissolved_nitrogen_mg_l":12.08,"salinity_psu":35.26,"dissolved_oxygen_ml_l":4.26,"total_microphytoplankton_density_cells_l":50,"morphospecies_n":2,"dominant_taxon":"Bacillariophyceae","source_article_doi":"10.25268/bimc.invemar.2026.55.2.1419","science_role":"PILOT_A_GROUND_TRUTH_CANDIDATE","notes":"physicochemical values verified from PDF Table 2; coordinates and density from provided spreadsheet, density consistent with PDF Table 3; sampling day unavailable"}},{"type":"Feature","geometry":{"type":"Point","coordinates":[-75.409413,-26.479318]},"properties":{"station_id":"P8P","region":"SE_PACIFIC","sampling_period":"2023-12-17/2023-12-23","max_chlorophyll_depth_m":60,"temperature_c":17.47,"dissolved_nitrogen_mg_l":12.43,"salinity_psu":34.73,"dissolved_oxygen_ml_l":4.41,"total_microphytoplankton_density_cells_l":230,"morphospecies_n":8,"dominant_taxon":"Gonyaulax sp.","source_article_doi":"10.25268/bimc.invemar.2026.55.2.1419","science_role":"PILOT_A_GROUND_TRUTH_CANDIDATE","notes":"physicochemical values verified from PDF Table 2; coordinates and density from provided spreadsheet, density consistent with PDF Table 3; sampling day unavailable"}},{"type":"Feature","geometry":{"type":"Point","coordinates":[-58.662,-62.393]},"properties":{"station_id":"P1A","region":"WAP_NORTH","sampling_period":"2024-01-14/2024-01-22","max_chlorophyll_depth_m":30,"temperature_c":0.96,"dissolved_nitrogen_mg_l":17.42,"salinity_psu":34.28,"dissolved_oxygen_ml_l":6.43,"total_microphytoplankton_density_cells_l":30,"morphospecies_n":1,"dominant_taxon":"Gyrodinium spp.","source_article_doi":"10.25268/bimc.invemar.2026.55.2.1419","science_role":"PILOT_A_GROUND_TRUTH_CANDIDATE","notes":"physicochemical values verified from PDF Table 2; coordinates and density from provided spreadsheet, density consistent with PDF Table 3; sampling day unavailable"}},{"type":"Feature","geometry":{"type":"Point","coordinates":[-60.94445,-63.979933]},"properties":{"station_id":"P2A","region":"WAP_NORTH","sampling_period":"2024-01-14/2024-01-22","max_chlorophyll_depth_m":20,"temperature_c":-0.4,"dissolved_nitrogen_mg_l":18.01,"salinity_psu":34.24,"dissolved_oxygen_ml_l":5.95,"total_microphytoplankton_density_cells_l":120,"morphospecies_n":3,"dominant_taxon":"Gyrodinium spp.","source_article_doi":"10.25268/bimc.invemar.2026.55.2.1419","science_role":"PILOT_A_GROUND_TRUTH_CANDIDATE","notes":"physicochemical values verified from PDF Table 2; coordinates and density from provided spreadsheet, density consistent with PDF Table 3; sampling day unavailable"}},{"type":"Feature","geometry":{"type":"Point","coordinates":[-60.737533,-63.9585]},"properties":{"station_id":"P3A","region":"WAP_NORTH","sampling_period":"2024-01-14/2024-01-22","max_chlorophyll_depth_m":10,"temperature_c":0.56,"dissolved_nitrogen_mg_l":17.6,"salinity_psu":34.2,"dissolved_oxygen_ml_l":5.92,"total_microphytoplankton_density_cells_l":20,"morphospecies_n":1,"dominant_taxon":"Gyrodinium spp.","source_article_doi":"10.25268/bimc.invemar.2026.55.2.1419","science_role":"PILOT_A_GROUND_TRUTH_CANDIDATE","notes":"physicochemical values verified from PDF Table 2; coordinates and density from provided spreadsheet, density consistent with PDF Table 3; sampling day unavailable"}},{"type":"Feature","geometry":{"type":"Point","coordinates":[-61.19145,-64.067733]},"properties":{"station_id":"P4A","region":"WAP_NORTH","sampling_period":"2024-01-14/2024-01-22","max_chlorophyll_depth_m":33,"temperature_c":0.95,"dissolved_nitrogen_mg_l":17.45,"salinity_psu":34.1,"dissolved_oxygen_ml_l":5.87,"total_microphytoplankton_density_cells_l":50,"morphospecies_n":2,"dominant_taxon":"Gyrodinium spp.","source_article_doi":"10.25268/bimc.invemar.2026.55.2.1419","science_role":"PILOT_A_GROUND_TRUTH_CANDIDATE","notes":"physicochemical values verified from PDF Table 2; coordinates and density from provided spreadsheet, density consistent with PDF Table 3; sampling day unavailable"}},{"type":"Feature","geometry":{"type":"Point","coordinates":[-61.239783,-64.198917]},"properties":{"station_id":"P5A","region":"WAP_NORTH","sampling_period":"2024-01-14/2024-01-22","max_chlorophyll_depth_m":50,"temperature_c":-0.16,"dissolved_nitrogen_mg_l":17.91,"salinity_psu":34.23,"dissolved_oxygen_ml_l":5.57,"total_microphytoplankton_density_cells_l":60,"morphospecies_n":4,"dominant_taxon":"Thalassiosira spp.","source_article_doi":"10.25268/bimc.invemar.2026.55.2.1419","science_role":"PILOT_A_GROUND_TRUTH_CANDIDATE","notes":"physicochemical values verified from PDF Table 2; coordinates and density from provided spreadsheet, density consistent with PDF Table 3; sampling day unavailable"}},{"type":"Feature","geometry":{"type":"Point","coordinates":[-61.4515,-64.110817]},"properties":{"station_id":"P6A","region":"WAP_NORTH","sampling_period":"2024-01-14/2024-01-22","max_chlorophyll_depth_m":15,"temperature_c":1.68,"dissolved_nitrogen_mg_l":17.17,"salinity_psu":33.94,"dissolved_oxygen_ml_l":6.43,"total_microphytoplankton_density_cells_l":null,"morphospecies_n":null,"dominant_taxon":null,"source_article_doi":"10.25268/bimc.invemar.2026.55.2.1419","science_role":"ENVIRONMENT_ONLY_NO_DENSITY_TARGET","notes":"physicochemical values verified from PDF Table 2; coordinates and density from provided spreadsheet, density consistent with PDF Table 3; sampling day unavailable"}},{"type":"Feature","geometry":{"type":"Point","coordinates":[-61.507133,-64.07285]},"properties":{"station_id":"P7A","region":"WAP_NORTH","sampling_period":"2024-01-14/2024-01-22","max_chlorophyll_depth_m":16,"temperature_c":1.51,"dissolved_nitrogen_mg_l":17.24,"salinity_psu":33.99,"dissolved_oxygen_ml_l":6.34,"total_microphytoplankton_density_cells_l":40,"morphospecies_n":1,"dominant_taxon":"Gyrodinium spp.","source_article_doi":"10.25268/bimc.invemar.2026.55.2.1419","science_role":"PILOT_A_GROUND_TRUTH_CANDIDATE","notes":"physicochemical values verified from PDF Table 2; coordinates and density from provided spreadsheet, density consistent with PDF Table 3; sampling day unavailable"}},{"type":"Feature","geometry":{"type":"Point","coordinates":[-61.696117,-63.998117]},"properties":{"station_id":"P8A","region":"WAP_NORTH","sampling_period":"2024-01-14/2024-01-22","max_chlorophyll_depth_m":20,"temperature_c":1.86,"dissolved_nitrogen_mg_l":17.11,"salinity_psu":33.91,"dissolved_oxygen_ml_l":6.5,"total_microphytoplankton_density_cells_l":20,"morphospecies_n":1,"dominant_taxon":"Gyrodinium spp.","source_article_doi":"10.25268/bimc.invemar.2026.55.2.1419","science_role":"PILOT_A_GROUND_TRUTH_CANDIDATE","notes":"physicochemical values verified from PDF Table 2; coordinates and density from provided spreadsheet, density consistent with PDF Table 3; sampling day unavailable"}},{"type":"Feature","geometry":{"type":"Point","coordinates":[-61.711967,-64.32315]},"properties":{"station_id":"P10A","region":"WAP_NORTH","sampling_period":"2024-01-14/2024-01-22","max_chlorophyll_depth_m":10,"temperature_c":2.0,"dissolved_nitrogen_mg_l":17.03,"salinity_psu":33.75,"dissolved_oxygen_ml_l":6.52,"total_microphytoplankton_density_cells_l":null,"morphospecies_n":null,"dominant_taxon":null,"source_article_doi":"10.25268/bimc.invemar.2026.55.2.1419","science_role":"ENVIRONMENT_ONLY_NO_DENSITY_TARGET","notes":"physicochemical values verified from PDF Table 2; coordinates and density from provided spreadsheet, density consistent with PDF Table 3; sampling day unavailable"}},{"type":"Feature","geometry":{"type":"Point","coordinates":[-61.658367,-64.4008]},"properties":{"station_id":"P11A","region":"WAP_NORTH","sampling_period":"2024-01-14/2024-01-22","max_chlorophyll_depth_m":17,"temperature_c":1.44,"dissolved_nitrogen_mg_l":17.25,"salinity_psu":33.9,"dissolved_oxygen_ml_l":6.33,"total_microphytoplankton_density_cells_l":50,"morphospecies_n":1,"dominant_taxon":"Gyrodinium spp.","source_article_doi":"10.25268/bimc.invemar.2026.55.2.1419","science_role":"PILOT_A_GROUND_TRUTH_CANDIDATE","notes":"physicochemical values verified from PDF Table 2; coordinates and density from provided spreadsheet, density consistent with PDF Table 3; sampling day unavailable"}},{"type":"Feature","geometry":{"type":"Point","coordinates":[-61.692767,-64.46835]},"properties":{"station_id":"P12A","region":"WAP_NORTH","sampling_period":"2024-01-14/2024-01-22","max_chlorophyll_depth_m":10,"temperature_c":0.91,"dissolved_nitrogen_mg_l":17.48,"salinity_psu":34.03,"dissolved_oxygen_ml_l":6.21,"total_microphytoplankton_density_cells_l":30,"morphospecies_n":2,"dominant_taxon":"Gyrodinium spp.","source_article_doi":"10.25268/bimc.invemar.2026.55.2.1419","science_role":"PILOT_A_GROUND_TRUTH_CANDIDATE","notes":"physicochemical values verified from PDF Table 2; coordinates and density from provided spreadsheet, density consistent with PDF Table 3; sampling day unavailable"}},{"type":"Feature","geometry":{"type":"Point","coordinates":[-61.8974,-64.518617]},"properties":{"station_id":"P13A","region":"WAP_NORTH","sampling_period":"2024-01-14/2024-01-22","max_chlorophyll_depth_m":10,"temperature_c":1.47,"dissolved_nitrogen_mg_l":17.25,"salinity_psu":33.77,"dissolved_oxygen_ml_l":6.84,"total_microphytoplankton_density_cells_l":null,"morphospecies_n":null,"dominant_taxon":null,"source_article_doi":"10.25268/bimc.invemar.2026.55.2.1419","science_role":"ENVIRONMENT_ONLY_NO_DENSITY_TARGET","notes":"physicochemical values verified from PDF Table 2; coordinates and density from provided spreadsheet, density consistent with PDF Table 3; sampling day unavailable"}},{"type":"Feature","geometry":{"type":"Point","coordinates":[-62.050883,-64.470783]},"properties":{"station_id":"P14A","region":"WAP_NORTH","sampling_period":"2024-01-14/2024-01-22","max_chlorophyll_depth_m":14,"temperature_c":1.82,"dissolved_nitrogen_mg_l":17.15,"salinity_psu":33.94,"dissolved_oxygen_ml_l":6.54,"total_microphytoplankton_density_cells_l":10,"morphospecies_n":1,"dominant_taxon":"Gyrodinium spp.","source_article_doi":"10.25268/bimc.invemar.2026.55.2.1419","science_role":"PILOT_A_GROUND_TRUTH_CANDIDATE","notes":"physicochemical values verified from PDF Table 2; coordinates and density from provided spreadsheet, density consistent with PDF Table 3; sampling day unavailable"}},{"type":"Feature","geometry":{"type":"Point","coordinates":[-62.1618,-64.419317]},"properties":{"station_id":"P15A","region":"WAP_NORTH","sampling_period":"2024-01-14/2024-01-22","max_chlorophyll_depth_m":20,"temperature_c":1.19,"dissolved_nitrogen_mg_l":17.36,"salinity_psu":34.14,"dissolved_oxygen_ml_l":5.8,"total_microphytoplankton_density_cells_l":60,"morphospecies_n":2,"dominant_taxon":"Thalassiosira spp.","source_article_doi":"10.25268/bimc.invemar.2026.55.2.1419","science_role":"PILOT_A_GROUND_TRUTH_CANDIDATE","notes":"physicochemical values verified from PDF Table 2; coordinates and density from provided spreadsheet, density consistent with PDF Table 3; sampling day unavailable"}},{"type":"Feature","geometry":{"type":"Point","coordinates":[-62.278317,-64.561283]},"properties":{"station_id":"P16A","region":"WAP_NORTH","sampling_period":"2024-01-14/2024-01-22","max_chlorophyll_depth_m":20,"temperature_c":1.37,"dissolved_nitrogen_mg_l":17.27,"salinity_psu":33.79,"dissolved_oxygen_ml_l":6.46,"total_microphytoplankton_density_cells_l":40,"morphospecies_n":1,"dominant_taxon":"Gyrodinium spp.","source_article_doi":"10.25268/bimc.invemar.2026.55.2.1419","science_role":"PILOT_A_GROUND_TRUTH_CANDIDATE","notes":"physicochemical values verified from PDF Table 2; coordinates and density from provided spreadsheet, density consistent with PDF Table 3; sampling day unavailable"}},{"type":"Feature","geometry":{"type":"Point","coordinates":[-62.521867,-64.583433]},"properties":{"station_id":"P17A","region":"WAP_NORTH","sampling_period":"2024-01-14/2024-01-22","max_chlorophyll_depth_m":34,"temperature_c":0.91,"dissolved_nitrogen_mg_l":17.47,"salinity_psu":34.15,"dissolved_oxygen_ml_l":5.67,"total_microphytoplankton_density_cells_l":100,"morphospecies_n":4,"dominant_taxon":"Thalassiosira spp.","source_article_doi":"10.25268/bimc.invemar.2026.55.2.1419","science_role":"PILOT_A_GROUND_TRUTH_CANDIDATE","notes":"physicochemical values verified from PDF Table 2; coordinates and density from provided spreadsheet, density consistent with PDF Table 3; sampling day unavailable"}},{"type":"Feature","geometry":{"type":"Point","coordinates":[-62.6537,-64.532217]},"properties":{"station_id":"P18A","region":"WAP_NORTH","sampling_period":"2024-01-14/2024-01-22","max_chlorophyll_depth_m":34,"temperature_c":0.81,"dissolved_nitrogen_mg_l":17.5,"salinity_psu":34.14,"dissolved_oxygen_ml_l":5.66,"total_microphytoplankton_density_cells_l":160,"morphospecies_n":4,"dominant_taxon":"Thalassiosira spp.","source_article_doi":"10.25268/bimc.invemar.2026.55.2.1419","science_role":"PILOT_A_GROUND_TRUTH_CANDIDATE","notes":"physicochemical values verified from PDF Table 2; coordinates and density from provided spreadsheet, density consistent with PDF Table 3; sampling day unavailable"}},{"type":"Feature","geometry":{"type":"Point","coordinates":[-62.718033,-64.594183]},"properties":{"station_id":"P19A","region":"WAP_NORTH","sampling_period":"2024-01-14/2024-01-22","max_chlorophyll_depth_m":31,"temperature_c":0.92,"dissolved_nitrogen_mg_l":17.46,"salinity_psu":34.13,"dissolved_oxygen_ml_l":5.6,"total_microphytoplankton_density_cells_l":50,"morphospecies_n":2,"dominant_taxon":"Thalassiosira spp.","source_article_doi":"10.25268/bimc.invemar.2026.55.2.1419","science_role":"PILOT_A_GROUND_TRUTH_CANDIDATE","notes":"physicochemical values verified from PDF Table 2; coordinates and density from provided spreadsheet, density consistent with PDF Table 3; sampling day unavailable"}},{"type":"Feature","geometry":{"type":"Point","coordinates":[-62.871067,-64.6483]},"properties":{"station_id":"P20A","region":"WAP_NORTH","sampling_period":"2024-01-14/2024-01-22","max_chlorophyll_depth_m":20,"temperature_c":1.03,"dissolved_nitrogen_mg_l":17.41,"salinity_psu":34.16,"dissolved_oxygen_ml_l":5.63,"total_microphytoplankton_density_cells_l":170,"morphospecies_n":3,"dominant_taxon":"Thalassiosira spp.","source_article_doi":"10.25268/bimc.invemar.2026.55.2.1419","science_role":"PILOT_A_GROUND_TRUTH_CANDIDATE","notes":"physicochemical values verified from PDF Table 2; coordinates and density from provided spreadsheet, density consistent with PDF Table 3; sampling day unavailable"}},{"type":"Feature","geometry":{"type":"Point","coordinates":[-62.770883,-64.783367]},"properties":{"station_id":"P21A","region":"WAP_NORTH","sampling_period":"2024-01-14/2024-01-22","max_chlorophyll_depth_m":20,"temperature_c":0.94,"dissolved_nitrogen_mg_l":17.46,"salinity_psu":34.07,"dissolved_oxygen_ml_l":6.06,"total_microphytoplankton_density_cells_l":20,"morphospecies_n":1,"dominant_taxon":"Gyrodinium spp.","source_article_doi":"10.25268/bimc.invemar.2026.55.2.1419","science_role":"PILOT_A_GROUND_TRUTH_CANDIDATE","notes":"physicochemical values verified from PDF Table 2; coordinates and density from provided spreadsheet, density consistent with PDF Table 3; sampling day unavailable"}},{"type":"Feature","geometry":{"type":"Point","coordinates":[-63.362583,-64.989583]},"properties":{"station_id":"P22A","region":"WAP_NORTH","sampling_period":"2024-01-14/2024-01-22","max_chlorophyll_depth_m":15,"temperature_c":1.12,"dissolved_nitrogen_mg_l":17.42,"salinity_psu":33.79,"dissolved_oxygen_ml_l":6.26,"total_microphytoplankton_density_cells_l":null,"morphospecies_n":null,"dominant_taxon":null,"source_article_doi":"10.25268/bimc.invemar.2026.55.2.1419","science_role":"ENVIRONMENT_ONLY_NO_DENSITY_TARGET","notes":"physicochemical values verified from PDF Table 2; coordinates and density from provided spreadsheet, density consistent with PDF Table 3; sampling day unavailable"}},{"type":"Feature","geometry":{"type":"Point","coordinates":[-63.507315,-64.955149]},"properties":{"station_id":"P23A","region":"WAP_NORTH","sampling_period":"2024-01-14/2024-01-22","max_chlorophyll_depth_m":15,"temperature_c":0.99,"dissolved_nitrogen_mg_l":17.44,"salinity_psu":34.07,"dissolved_oxygen_ml_l":5.76,"total_microphytoplankton_density_cells_l":70,"morphospecies_n":2,"dominant_taxon":"Gyrodinium spp.","source_article_doi":"10.25268/bimc.invemar.2026.55.2.1419","science_role":"PILOT_A_GROUND_TRUTH_CANDIDATE","notes":"physicochemical values verified from PDF Table 2; coordinates and density from provided spreadsheet, density consistent with PDF Table 3; sampling day unavailable"}},{"type":"Feature","geometry":{"type":"Point","coordinates":[-63.67678,-64.90675]},"properties":{"station_id":"P24A","region":"WAP_NORTH","sampling_period":"2024-01-14/2024-01-22","max_chlorophyll_depth_m":15,"temperature_c":0.95,"dissolved_nitrogen_mg_l":17.46,"salinity_psu":34.02,"dissolved_oxygen_ml_l":5.96,"total_microphytoplankton_density_cells_l":20,"morphospecies_n":2,"dominant_taxon":"Gyrodinium spp. y Thalassiosira spp.","source_article_doi":"10.25268/bimc.invemar.2026.55.2.1419","science_role":"PILOT_A_GROUND_TRUTH_CANDIDATE","notes":"physicochemical values verified from PDF Table 2; coordinates and density from provided spreadsheet, density consistent with PDF Table 3; sampling day unavailable"}},{"type":"Feature","geometry":{"type":"Point","coordinates":[-63.97065,-64.84518]},"properties":{"station_id":"P25A","region":"WAP_NORTH","sampling_period":"2024-01-14/2024-01-22","max_chlorophyll_depth_m":10,"temperature_c":1.4,"dissolved_nitrogen_mg_l":17.3,"salinity_psu":33.85,"dissolved_oxygen_ml_l":6.66,"total_microphytoplankton_density_cells_l":null,"morphospecies_n":null,"dominant_taxon":null,"source_article_doi":"10.25268/bimc.invemar.2026.55.2.1419","science_role":"ENVIRONMENT_ONLY_NO_DENSITY_TARGET","notes":"physicochemical values verified from PDF Table 2; coordinates and density from provided spreadsheet, density consistent with PDF Table 3; sampling day unavailable"}}]}